0 COSMOS 2251 DEB
1 37959U 93036BPJ 13264.34288429  .00000655  00000-0  20018-3 0  1598
2 37959 074.0151 139.2244 0075503 280.8932 200.3596 14.42269171157803
0 COSMOS 2251 DEB
1 37959U 93036BPJ 13266.35490890  .00000625  00000-0  19142-3 0  1603
2 37959 074.0150 135.4879 0075460 276.7205 207.0920 14.42272766158094
0 COSMOS 2251 DEB
1 37959U 93036BPJ 13269.06581145  .00000803  00000-0  24357-3 0  1611
2 37959 074.0147 130.4537 0075385 271.1114 242.5309 14.42276428158487
0 COSMOS 2251 DEB
1 37959U 93036BPJ 13272.04838637  .00000838  00000-0  25376-3 0  1625
2 37959 074.0141 124.9146 0075356 264.9180 248.6005 14.42280467158912
0 COSMOS 2251 DEB
1 37959U 93036BPJ 13275.56226804  .00001189  00000-0  35658-3 0  1637
2 37959 074.0140 118.3881 0075248 257.6314 133.3503 14.42291505159416
0 COSMOS 2251 DEB
1 37959U 93036BPJ 13277.24493319  .00000835  00000-0  25304-3 0  1646
2 37959 074.0141 115.2627 0075231 254.1481 230.1208 14.42290912159666
